LEMUR-2-PETERG
1 42841U 17042S   24003.08320047  .00007712  00000-0  62757-3 0  9993
2 42841  97.3780 201.2516 0009069 245.1023 114.9258 14.99769257352732
